$$SOE
2459580.500000000, A.D. 2022-Jan-01 00:00:00.0000, 7.264559264248326E+07, -5.109409378638977E+08, -7.964170926772633E+07,
2459587.500000000, A.D. 2022-Jan-08 00:00:00.0000, 8.103009725536153E+07, -5.094541290512630E+08, -8.116384674838173E+07,
2459594.500000000, A.D. 2022-Jan-15 00:00:00.0000, 8.938700477573612E+07, -5.077936049358268E+08, -8.265830407119015E+07,
2459601.500000000, A.D. 2022-Jan-22 00:00:00.0000, 9.771346726550204E+07, -5.059599124706937E+08, -8.412456865123957E+07,
2459608.500000000, A.D. 2022-Jan-29 00:00:00.0000, 1.060066404504892E+08, -5.039536208297017E+08, -8.556213156150034E+07,
2459615.500000000, A.D. 2022-Feb-05 00:00:00.0000, 1.142636807852296E+08, -5.017753222796875E+08, -8.697048726212275E+07,
2459622.500000000, A.D. 2022-Feb-12 00:00:00.0000, 1.224817446981609E+08, -4.994256341599542E+08, -8.834913362108135E+07,
2459629.500000000, A.D. 2022-Feb-19 00:00:00.0000, 1.306579886931382E+08, -4.969051996006235E+08, -8.969757191139379E+07,
2459636.500000000, A.D. 2022-Feb-26 00:00:00.0000, 1.387895689962225E+08, -4.942146877034109E+08, -9.101530672406426E+07,
2459643.500000000, A.D. 2022-Mar-05 00:00:00.0000, 1.468736409073128E+08, -4.913547938019995E+08, -9.230184586215079E+07,
2459650.500000000, A.D. 2022-Mar-12 00:00:00.0000, 1.549073580787700E+08, -4.883262398679166E+08, -9.355670024207669E+07,
2459657.500000000, A.D. 2022-Mar-19 00:00:00.0000, 1.628878717924577E+08, -4.851297750339404E+08, -9.477938380682498E+07,
2459664.500000000, A.D. 2022-Mar-26 00:00:00.0000, 1.708123302581226E+08, -4.817661762409446E+08, -9.596941345395842E+07,
2459671.500000000, A.D. 2022-Apr-02 00:00:00.0000, 1.786778780017279E+08, -4.782362490641097E+08, -9.712630898970833E+07,
2459678.500000000, A.D. 2022-Apr-09 00:00:00.0000, 1.864816556167994E+08, -4.745408287142618E+08, -9.824959313425738E+07,
2459685.500000000, A.D. 2022-Apr-16 00:00:00.0000, 1.942208002367135E+08, -4.706807805614285E+08, -9.933879155815506E+07,
2459692.500000000, A.D. 2022-Apr-23 00:00:00.0000, 2.018924454592244E+08, -4.666569990975671E+08, -1.003934327453561E+08,
2459699.500000000, A.D. 2022-Apr-30 00:00:00.0000, 2.094937188526606E+08, -4.624704075839193E+08, -1.014130476949130E+08,
2459706.500000000, A.D. 2022-May-07 00:00:00.0000, 2.170217401065384E+08, -4.581219603557402E+08, -1.023971699033575E+08,
2459713.500000000, A.D. 2022-May-14 00:00:00.0000, 2.244736212169181E+08, -4.536126447458449E+08, -1.033453355069001E+08,
2459720.500000000, A.D. 2022-May-21 00:00:00.0000, 2.318464666767785E+08, -4.489434818684761E+08, -1.042570833352724E+08,
2459727.500000000, A.D. 2022-May-28 00:00:00.0000, 2.391373731943019E+08, -4.441155272227414E+08, -1.051319549119370E+08,
2459734.500000000, A.D. 2022-Jun-04 00:00:00.0000, 2.463434292181499E+08, -4.391298714294807E+08, -1.059694944522144E+08,
2459741.500000000, A.D. 2022-Jun-11 00:00:00.0000, 2.534617144162080E+08, -4.339876411010087E+08, -1.067692488731553E+08,
2459748.500000000, A.D. 2022-Jun-18 00:00:00.0000, 2.604892991477985E+08, -4.286899998321510E+08, -1.075307678182900E+08,
2459755.500000000, A.D. 2022-Jun-25 00:00:00.0000, 2.674232439597691E+08, -4.232381493470212E+08, -1.082536037031282E+08,
2459762.500000000, A.D. 2022-Jul-02 00:00:00.0000, 2.742605992416143E+08, -4.176333308680757E+08, -1.089373117993746E+08,
2459769.500000000, A.D. 2022-Jul-09 00:00:00.0000, 2.809984054314998E+08, -4.118768265313606E+08, -1.095814503795388E+08,
2459776.500000000, A.D. 2022-Jul-16 00:00:00.0000, 2.876336937197847E+08, -4.059699597666253E+08, -1.101855808288255E+08,
2459783.500000000, A.D. 2022-Jul-23 00:00:00.0000, 2.941634850528996E+08, -3.999140945661938E+08, -1.107492675165956E+08,
2459790.500000000, A.D. 2022-Jul-30 00:00:00.0000, 3.005847875224790E+08, -3.937106369969956E+08, -1.112720777090634E+08,
2459797.500000000, A.D. 2022-Aug-06 00:00:00.0000, 3.068945957401905E+08, -3.873610383074604E+08, -1.117535818002178E+08,
2459804.500000000, A.D. 2022-Aug-13 00:00:00.0000, 3.130898913777857E+08, -3.808667968755486E+08, -1.121933535605925E+08,
2459811.500000000, A.D. 2022-Aug-20 00:00:00.0000, 3.191676433058602E+08, -3.742294595025818E+08, -1.125909703014928E+08,
2459818.500000000, A.D. 2022-Aug-27 00:00:00.0000, 3.251248074023562E+08, -3.674506227807042E+08, -1.129460130208009E+08,
2459825.500000000, A.D. 2022-Sep-03 00:00:00.0000, 3.309583262818031E+08, -3.605319346458619E+08, -1.132580665627976E+08,
2459832.500000000, A.D. 2022-Sep-10 00:00:00.0000, 3.366651290385816E+08, -3.534750960939078E+08, -1.135267197991223E+08,
2459839.500000000, A.D. 2022-Sep-17 00:00:00.0000, 3.422421310367469E+08, -3.462818630631380E+08, -1.137515658346131E+08,
2459846.500000000, A.D. 2022-Sep-24 00:00:00.0000, 3.476862338098925E+08, -3.389540485354439E+08, -1.139322022486087E+08,
2459853.500000000, A.D. 2022-Oct-01 00:00:00.0000, 3.529943253144175E+08, -3.314935248792643E+08, -1.140682313964693E+08,
2459860.500000000, A.D. 2022-Oct-08 00:00:00.0000, 3.581632809477639E+08, -3.239022259132588E+08, -1.141592607672134E+08,
2459867.500000000, A.D. 2022-Oct-15 00:00:00.0000, 3.631899644046374E+08, -3.161821474933953E+08, -1.142049032153755E+08,
2459874.500000000, A.D. 2022-Oct-22 00:00:00.0000, 3.680712261937474E+08, -3.083353483094332E+08, -1.142047770060382E+08,
2459881.500000000, A.D. 2022-Oct-29 00:00:00.0000, 3.728039023163580E+08, -3.003639534848897E+08, -1.141585061150756E+08,
2459888.500000000, A.D. 2022-Nov-05 00:00:00.0000, 3.773848152105974E+08, -2.922701582392581E+08, -1.140657207542596E+08,
2459895.500000000, A.D. 2022-Nov-12 00:00:00.0000, 3.818107750024579E+08, -2.840562303458875E+08, -1.139260578389364E+08,
2459902.500000000, A.D. 2022-Nov-19 00:00:00.0000, 3.860785803500454E+08, -2.757245123404890E+08, -1.137391614118111E+08,
2459909.500000000, A.D. 2022-Nov-26 00:00:00.0000, 3.901850191494009E+08, -2.672774238781862E+08, -1.135046830808658E+08,
2459916.500000000, A.D. 2022-Dec-03 00:00:00.0000, 3.941268692744325E+08, -2.587174642510326E+08, -1.132222824891109E+08,
2459923.500000000, A.D. 2022-Dec-10 00:00:00.0000, 3.979008994034042E+08, -2.500472150476380E+08, -1.128916278204082E+08,
2459930.500000000, A.D. 2022-Dec-17 00:00:00.0000, 4.015038699638130E+08, -2.412693429801937E+08, -1.125123963472591E+08,
2459937.500000000, A.D. 2022-Dec-24 00:00:00.0000, 4.049325343120162E+08, -2.323866029447214E+08, -1.120842750374039E+08,
2459944.500000000, A.D. 2022-Dec-31 00:00:00.0000, 4.081836405122467E+08, -2.234018412062107E+08, -1.116069612444440E+08,
2459951.500000000, A.D. 2023-Jan-07 00:00:00.0000, 4.112539338456859E+08, -2.143179977448692E+08, -1.110801634163637E+08,
2459958.500000000, A.D. 2023-Jan-14 00:00:00.0000, 4.141401580914088E+08, -2.051381072657564E+08, -1.105036016024343E+08,
2459965.500000000, A.D. 2023-Jan-21 00:00:00.0000, 4.168390549423267E+08, -1.958653020429915E+08, -1.098770079597402E+08,
2459972.500000000, A.D. 2023-Jan-28 00:00:00.0000, 4.193473652317693E+08, -1.865028167900329E+08, -1.092001276124130E+08,
2459979.500000000, A.D. 2023-Feb-04 00:00:00.0000, 4.216618317724187E+08, -1.770539925233531E+08, -1.084727195984165E+08,
2459986.500000000, A.D. 2023-Feb-11 00:00:00.0000, 4.237792020246711E+08, -1.675222796091018E+08, -1.076945577572741E+08,
2459993.500000000, A.D. 2023-Feb-18 00:00:00.0000, 4.256962305437405E+08, -1.579112408123869E+08, -1.068654316225890E+08,
2460000.500000000, A.D. 2023-Feb-25 00:00:00.0000, 4.274096814806066E+08, -1.482245545069847E+08, -1.059851473587849E+08,
2460007.500000000, A.D. 2023-Mar-04 00:00:00.0000, 4.289163312511742E+08, -1.384660180217083E+08, -1.050535287516666E+08,
2460014.500000000, A.D. 2023-Mar-11 00:00:00.0000, 4.302129714145727E+08, -1.286395511167960E+08, -1.040704182568975E+08,
2460021.500000000, A.D. 2023-Mar-18 00:00:00.0000, 4.312964118201727E+08, -1.187491996325734E+08, -1.030356781160964E+08,
2460028.500000000, A.D. 2023-Mar-25 00:00:00.0000, 4.321634842389555E+08, -1.087991393491548E+08, -1.019491915641386E+08,
2460035.500000000, A.D. 2023-Apr-01 00:00:00.0000, 4.328110469159705E+08, -9.879367965333265E+07, -1.008108641352052E+08,
2460042.500000000, A.D. 2023-Apr-08 00:00:00.0000, 4.332359894425409E+08, -8.873726577526192E+07, -9.962062491210899E+07,
2460049.500000000, A.D. 2023-Apr-15 00:00:00.0000, 4.334352356274900E+08, -7.863448068907461E+07, -9.837842759677471E+07,
2460056.500000000, A.D. 2023-Apr-22 00:00:00.0000, 4.334057461910639E+08, -6.849004971729863E+07, -9.708425181854832E+07,
2460063.500000000, A.D. 2023-Apr-29 00:00:00.0000, 4.331445240292102E+08, -5.830884557097739E+07, -9.573810474752152E+07,
2460070.500000000, A.D. 2023-May-06 00:00:00.0000, 4.326486203020476E+08, -4.809589202674318E+07, -9.434002270649613E+07,
2460077.500000000, A.D. 2023-May-13 00:00:00.0000, 4.319151403846815E+08, -3.785636711567678E+07, -9.289007276585385E+07,
2460084.500000000, A.D. 2023-May-20 00:00:00.0000, 4.309412499291342E+08, -2.759560629477056E+07, -9.138835438356891E+07,
2460091.500000000, A.D. 2023-May-27 00:00:00.0000, 4.297241812450390E+08, -1.731910560816143E+07, -8.983500111084102E+07,
2460098.500000000, A.D. 2023-Jun-03 00:00:00.0000, 4.282612400704584E+08, -7.032524787737593E+06, -8.823018236651455E+07,
2460105.500000000, A.D. 2023-Jun-10 00:00:00.0000, 4.265498127699644E+08, 3.258309719696689E+06, -8.657410528326808E+07,
2460112.500000000, A.D. 2023-Jun-17 00:00:00.0000, 4.245873740617207E+08, 1.354740176717464E+07, -8.486701663792299E+07,
2460119.500000000, A.D. 2023-Jun-24 00:00:00.0000, 4.223714956045431E+08, 2.382858265031836E+07, -8.310920488923091E+07,
2460126.500000000, A.D. 2023-Jul-01 00:00:00.0000, 4.198998557062622E+08, 3.409550923985055E+07, -8.130100227610932E+07,
2460133.500000000, A.D. 2023-Jul-08 00:00:00.0000, 4.171702484876175E+08, 4.434166396423335E+07, -7.944278675267202E+07,
2460140.500000000, A.D. 2023-Jul-15 00:00:00.0000, 4.141805912351386E+08, 5.456035385216431E+07, -7.753498387170586E+07,
$$EOE